{"type": "FeatureCollection", "features": [ {"type": "Feature", "properties": {"norad_id": 66643, "name": "STARLINK-35918", "group": "last-30-days", "lat": 4.767433054658509, "lon": 26.86780874719318, "alt_km": 357.151272473855, "timestamp": "2025-12-07T22:37:41.858349+00:00", "meta": {"OBJECT_NAME": "STARLINK-35918", "OBJECT_ID": "2025-271AC", "EPOCH": "2025-12-07T06:00:04.999968", "MEAN_MOTION": 15.73612314, "ECCENTRICITY": 0.00010191, "INCLINATION": 53.1578, "RA_OF_ASC_NODE": 213.8813, "ARG_OF_PERICENTER": 87.2137, "MEAN_ANOMALY": 123.4912, "EPHEMERIS_TYPE": 0, "CLASSIFICATION_TYPE": "U", "NORAD_CAT_ID": 66643, "ELEMENT_SET_NO": 999, "REV_AT_EPOCH": 336, "BSTAR": -0.015633604, "MEAN_MOTION_DOT": -0.01976221, "MEAN_MOTION_DDOT": 0}, "tle": {"line1": "1 66643U 25271AC  25341.25005787 -.01976221  00000+0 -15634-1 0  9990", "line2": "2 66643  53.1578 213.8813 0001019  87.2137 123.4912 15.73612314  3368"}}, "geometry": {"type": "Point", "coordinates": [26.86780874719318, 4.767433054658509]}}, {"type": "Feature", "properties": {"norad_id": 66644, "name": "STARLINK-35938", "group": "last-30-days", "lat": 3.235691465290908, "lon": 28.019374398814637, "alt_km": 357.48862798869413, "timestamp": "2025-12-07T22:37:41.858361+00:00", "meta": {"OBJECT_NAME": "STARLINK-35938", "OBJECT_ID": "2025-271AD", "EPOCH": "2025-12-07T06:00:04.999968", "MEAN_MOTION": 15.73606087, "ECCENTRICITY": 7.251e-05, "INCLINATION": 53.1577, "RA_OF_ASC_NODE": 213.8771, "ARG_OF_PERICENTER": 71.5171, "MEAN_ANOMALY": 141.1071, "EPHEMERIS_TYPE": 0, "CLASSIFICATION_TYPE": "U", "NORAD_CAT_ID": 66644, "ELEMENT_SET_NO": 999, "REV_AT_EPOCH": 336, "BSTAR": -0.015566573, "MEAN_MOTION_DOT": -0.01928, "MEAN_MOTION_DDOT": 0}, "tle": {"line1": "1 66644U 25271AD  25341.25005787 -.01928000  00000+0 -15567-1 0  9998", "line2": "2 66644  53.1577 213.8771 0000725  71.5171 141.1071 15.73606087  3361"}}, "geometry": {"type": "Point", "coordinates": [28.019374398814637, 3.235691465290908]}}, {"type": "Feature", "properties": {"norad_id": 66645, "name": "SHENZHOU-22", "group": "last-30-days", "lat": -2.3711069391419537, "lon": -131.4905370748469, "alt_km": 397.0301253844891, "timestamp": "2025-12-07T22:37:41.858372+00:00", "meta": {"OBJECT_NAME": "SHENZHOU-22", "OBJECT_ID": "2025-272A", "EPOCH": "2025-12-07T06:28:07.735872", "MEAN_MOTION": 15.58832972, "ECCENTRICITY": 0.00093583, "INCLINATION": 41.4682, "RA_OF_ASC_NODE": 49.9091, "ARG_OF_PERICENTER": 347.392, "MEAN_ANOMALY": 12.6683, "EPHEMERIS_TYPE": 0, "CLASSIFICATION_TYPE": "U", "NORAD_CAT_ID": 66645, "ELEMENT_SET_NO": 999, "REV_AT_EPOCH": 26300, "BSTAR": 0.0003547841, "MEAN_MOTION_DOT": 0.00028044, "MEAN_MOTION_DDOT": 0}, "tle": {"line1": "1 66645U 25272A   25341.26953398  .00028044  00000+0  35478-3 0  9992", "line2": "2 66645  41.4682  49.9091 0009358 347.3920  12.6683 15.58832972263006"}}, "geometry": {"type": "Point", "coordinates": [-131.4905370748469, -2.3711069391419537]}}, {"type": "Feature", "properties": {"norad_id": 66646, "name": "CZ-2F R/B", "group": "last-30-days", "lat": -29.7055950682174, "lon": -100.53369625344719, "alt_km": 118.79844391854385, "timestamp": "2025-12-07T22:37:41.858383+00:00", "meta": {"OBJECT_NAME": "CZ-2F R/B", "OBJECT_ID": "2025-272B", "EPOCH": "2025-12-07T13:00:15.028704", "MEAN_MOTION": 16.47453798, "ECCENTRICITY": 0.002214, "INCLINATION": 41.4535, "RA_OF_ASC_NODE": 41.9834, "ARG_OF_PERICENTER": 229.6731, "MEAN_ANOMALY": 130.2205, "EPHEMERIS_TYPE": 0, "CLASSIFICATION_TYPE": "U", "NORAD_CAT_ID": 66646, "ELEMENT_SET_NO": 999, "REV_AT_EPOCH": 200, "BSTAR": 0.00015075, "MEAN_MOTION_DOT": 0.11903621, "MEAN_MOTION_DDOT": 8.0762e-06}, "tle": {"line1": "1 66646U 25272B   25341.54184061  .11903621  80762-5  15075-3 0  9992", "line2": "2 66646  41.4535  41.9834 0022140 229.6731 130.2205 16.47453798  2009"}}, "geometry": {"type": "Point", "coordinates": [-100.53369625344719, -29.7055950682174]}}, {"type": "Feature", "properties": {"norad_id": 66647, "name": "COSMOS 2597 (RODNIK-S 22)", "group": "last-30-days", "lat": -82.15324689341178, "lon": -143.52059737183566, "alt_km": 1500.1616964532968, "timestamp": "2025-12-07T22:37:41.858393+00:00", "meta": {"OBJECT_NAME": "COSMOS 2597 (RODNIK-S 22)", "OBJECT_ID": "2025-273A", "EPOCH": "2025-12-07T05:41:55.534848", "MEAN_MOTION": 12.41951141, "ECCENTRICITY": 0.00080131, "INCLINATION": 82.4981, "RA_OF_ASC_NODE": 289.866, "ARG_OF_PERICENTER": 302.2298, "MEAN_ANOMALY": 57.8004, "EPHEMERIS_TYPE": 0, "CLASSIFICATION_TYPE": "U", "NORAD_CAT_ID": 66647, "ELEMENT_SET_NO": 999, "REV_AT_EPOCH": 145, "BSTAR": 7.0086595e-05, "MEAN_MOTION_DOT": 1.9e-07, "MEAN_MOTION_DDOT": 0}, "tle": {"line1": "1 66647U 25273A   25341.23744832  .00000019  00000+0  70087-4 0  9991", "line2": "2 66647  82.4981 289.8660 0008013 302.2298  57.8004 12.41951141  1453"}}, "geometry": {"type": "Point", "coordinates": [-143.52059737183566, -82.15324689341178]}}, {"type": "Feature", "properties": {"norad_id": 66648, "name": "COSMOS 2598 (RODNIK-S 23)", "group": "last-30-days", "lat": -68.79636959458001, "lon": -90.40790791843551, "alt_km": 1496.6543185102964, "timestamp": "2025-12-07T22:37:41.858408+00:00", "meta": {"OBJECT_NAME": "COSMOS 2598 (RODNIK-S 23)", "OBJECT_ID": "2025-273B", "EPOCH": "2025-12-07T05:37:01.004160", "MEAN_MOTION": 12.42861705, "ECCENTRICITY": 0.00072516, "INCLINATION": 82.5029, "RA_OF_ASC_NODE": 289.8732, "ARG_OF_PERICENTER": 264.535, "MEAN_ANOMALY": 95.4902, "EPHEMERIS_TYPE": 0, "CLASSIFICATION_TYPE": "U", "NORAD_CAT_ID": 66648, "ELEMENT_SET_NO": 999, "REV_AT_EPOCH": 145, "BSTAR": 2.3127769e-05, "MEAN_MOTION_DOT": 1.3e-07, "MEAN_MOTION_DDOT": 0}, "tle": {"line1": "1 66648U 25273B   25341.23403940  .00000013  00000+0  23128-4 0  9992", "line2": "2 66648  82.5029 289.8732 0007251 264.5350  95.4902 12.42861705  1452"}}, "geometry": {"type": "Point", "coordinates": [-90.40790791843551, -68.79636959458001]}}, {"type": "Feature", "properties": {"norad_id": 66649, "name": "COSMOS 2599 (RODNIK-S 24)", "group": "last-30-days", "lat": -77.47548438885632, "lon": 145.80069197992466, "alt_km": 1502.7868268504499, "timestamp": "2025-12-07T22:37:41.858418+00:00", "meta": {"OBJECT_NAME": "COSMOS 2599 (RODNIK-S 24)", "OBJECT_ID": "2025-273C", "EPOCH": "2025-12-07T05:45:40.762368", "MEAN_MOTION": 12.41671784, "ECCENTRICITY": 0.00082439, "INCLINATION": 82.5016, "RA_OF_ASC_NODE": 289.8782, "ARG_OF_PERICENTER": 312.5495, "MEAN_ANOMALY": 47.4887, "EPHEMERIS_TYPE": 0, "CLASSIFICATION_TYPE": "U", "NORAD_CAT_ID": 66649, "ELEMENT_SET_NO": 999, "REV_AT_EPOCH": 145, "BSTAR": -4.2405335e-05, "MEAN_MOTION_DOT": 4e-08, "MEAN_MOTION_DDOT": 0}, "tle": {"line1": "1 66649U 25273C   25341.24005512  .00000004  00000+0 -42405-4 0  9997", "line2": "2 66649  82.5016 289.8782 0008243 312.5495  47.4887 12.41671784  1454"}}, "geometry": {"type": "Point", "coordinates": [145.80069197992466, -77.47548438885632]}}, {"type": "Feature", "properties": {"norad_id": 66650, "name": "BEE-1000", "group": "last-30-days", "lat": 69.7305215549566, "lon": 110.82449108746945, "alt_km": 592.9955472553374, "timestamp": "2025-12-07T22:37:41.858429+00:00", "meta": {"OBJECT_NAME": "BEE-1000", "OBJECT_ID": "2025-274A", "EPOCH": "2025-12-07T06:02:31.530048", "MEAN_MOTION": 14.91632462, "ECCENTRICITY": 0.00104371, "INCLINATION": 97.7387, "RA_OF_ASC_NODE": 268.5404, "ARG_OF_PERICENTER": 272.8798, "MEAN_ANOMALY": 87.1227, "EPHEMERIS_TYPE": 0, "CLASSIFICATION_TYPE": "U", "NORAD_CAT_ID": 66650, "ELEMENT_SET_NO": 999, "REV_AT_EPOCH": 158, "BSTAR": 0.00027018899, "MEAN_MOTION_DOT": 2.66e-05, "MEAN_MOTION_DDOT": 0}, "tle": {"line1": "1 66650U 25274A   25341.25175382  .00002660  00000+0  27019-3 0  9996", "line2": "2 66650  97.7387 268.5404 0010437 272.8798  87.1227 14.91632462  1582"}}, "geometry": {"type": "Point", "coordinates": [110.82449108746945, 69.7305215549566]}}, {"type": "Feature", "properties": {"norad_id": 66651, "name": "2025-274B", "group": "last-30-days", "lat": 67.04249831031946, "lon": 107.94372065457975, "alt_km": 592.9456041174544, "timestamp": "2025-12-07T22:37:41.858439+00:00", "meta": {"OBJECT_NAME": "2025-274B", "OBJECT_ID": "2025-274B", "EPOCH": "2025-12-07T06:01:49.063584", "MEAN_MOTION": 14.91734133, "ECCENTRICITY": 0.00107542, "INCLINATION": 97.7386, "RA_OF_ASC_NODE": 268.5403, "ARG_OF_PERICENTER": 272.1904, "MEAN_ANOMALY": 87.8084, "EPHEMERIS_TYPE": 0, "CLASSIFICATION_TYPE": "U", "NORAD_CAT_ID": 66651, "ELEMENT_SET_NO": 999, "REV_AT_EPOCH": 158, "BSTAR": 0.0005872624, "MEAN_MOTION_DOT": 5.866e-05, "MEAN_MOTION_DDOT": 0}, "tle": {"line1": "1 66651U 25274B   25341.25126231  .00005866  00000+0  58726-3 0  9996", "line2": "2 66651  97.7386 268.5403 0010754 272.1904  87.8084 14.91734133  1581"}}, "geometry": {"type": "Point", "coordinates": [107.94372065457975, 67.04249831031946]}}, {"type": "Feature", "properties": {"norad_id": 66652, "name": "2025-274C", "group": "last-30-days", "lat": 61.531189453455674, "lon": 103.74684130595533, "alt_km": 592.9536751702299, "timestamp": "2025-12-07T22:37:41.858450+00:00", "meta": {"OBJECT_NAME": "2025-274C", "OBJECT_ID": "2025-274C", "EPOCH": "2025-12-07T02:47:10.926816", "MEAN_MOTION": 14.91858714, "ECCENTRICITY": 0.00104303, "INCLINATION": 97.7392, "RA_OF_ASC_NODE": 268.4105, "ARG_OF_PERICENTER": 279.5537, "MEAN_ANOMALY": 80.4503, "EPHEMERIS_TYPE": 0, "CLASSIFICATION_TYPE": "U", "NORAD_CAT_ID": 66652, "ELEMENT_SET_NO": 999, "REV_AT_EPOCH": 156, "BSTAR": 0.00037894928, "MEAN_MOTION_DOT": 3.776e-05, "MEAN_MOTION_DDOT": 0}, "tle": {"line1": "1 66652U 25274C   25341.11609869  .00003776  00000+0  37895-3 0  9997", "line2": "2 66652  97.7392 268.4105 0010430 279.5537  80.4503 14.91858714  1566"}}, "geometry": {"type": "Point", "coordinates": [103.74684130595533, 61.531189453455674]}}]}